NORAD_CAT_ID,OBJECT_NAME,OBJECT_TYPE,EPOCH,MEAN_MOTION,ECCENTRICITY,INCLINATION,RA_OF_ASC_NODE,ARG_OF_PERICENTER,MEAN_ANOMALY,BSTAR,MEAN_MOTION_DOT,MEAN_MOTION_DDOT,TLE_LINE0,TLE_LINE1,TLE_LINE2,SEMIMAJOR_AXIS,PERIOD,APOGEE,PERIGEE,DECAYED
51151.0,STARLINK-3361,PAYLOAD,2022-06-13 12:37:36,15.08838666,0.0001778,53.2166,317.5713,51.7164,308.3988,0.00010845,1.438e-05,0.0,0 STARLINK-3361,1 51151U 22005AZ  22164.52611160  .00001438  00000-0  10845-3 0  9996,2 51151  53.2166 317.5713 0001778  51.7164 308.3988 15.08838666 22501,6917.884,95.438,540.979,538.519,0.0
51151.0,STARLINK-3361,PAYLOAD,2022-06-13 18:59:08,15.08839883,0.0001786,53.2167,316.3821,51.9332,308.1821,0.00010948,1.455e-05,0.0,0 STARLINK-3361,1 51151U 22005AZ  22164.79107101  .00001455  00000-0  10948-3 0  9993,2 51151  53.2167 316.3821 0001786  51.9332 308.1821 15.08839883 22547,6917.880999999999,95.438,540.981,538.51,0.0
51151.0,STARLINK-3361,PAYLOAD,2022-06-14 02:56:04,15.08840759,0.0001801,53.2166,314.8952,51.8029,308.3125,9.353e-05,1.201e-05,0.0,0 STARLINK-3361,1 51151U 22005AZ  22165.12227173  .00001201  00000-0  93530-4 0  9991,2 51151  53.2166 314.8952 0001801  51.8029 308.3125 15.08840759 23706,6917.878000000002,95.438,540.989,538.497,0.0
51151.0,STARLINK-3361,PAYLOAD,2022-06-14 12:28:23,15.08836724,0.0001852,53.2163,313.1109,52.3382,307.7778,4.0731e-06,-2.23e-06,0.0,0 STARLINK-3361,1 51151U 22005AZ  22165.51971710 -.00000223  00000-0  40731-5 0  9997,2 51151  53.2163 313.1109 0001852  52.3382 307.7778 15.08836724 22650,6917.89,95.438,541.0369999999998,538.474,0.0
51151.0,STARLINK-3361,PAYLOAD,2022-06-14 18:49:56,15.08834071,0.0001837,53.2164,311.9211,50.8274,309.2881,-6.612899999999999e-05,-1.34e-05,0.0,0 STARLINK-3361,1 51151U 22005AZ  22165.78468143 -.00001340  00000-0 -66129-4 0  9997,2 51151  53.2164 311.9211 0001837  50.8274 309.2881 15.08834071 23800,6917.899,95.438,541.034,538.493,0.0
51151.0,STARLINK-3361,PAYLOAD,2022-06-15 12:19:11,15.08830038,0.0001541,53.2167,308.6498,49.0752,311.0373,-0.00010994,-2.037e-05,0.0,0 STARLINK-3361,1 51151U 22005AZ  22166.51332709 -.00002037  00000-0 -10994-3 0  9999,2 51151  53.2167 308.6498 0001541  49.0752 311.0373 15.08830038 22801,6917.911,95.438,540.842,538.71,0.0
51151.0,STARLINK-3361,PAYLOAD,2022-06-15 15:29:57,15.08829166,0.0001599,53.2168,308.0553,48.0399,312.0729,-0.00010877,-2.018e-05,0.0,0 STARLINK-3361,1 51151U 22005AZ  22166.64580847 -.00002018  00000-0 -10877-3 0  9990,2 51151  53.2168 308.0553 0001599  48.0399 312.0729 15.08829166 22825,6917.9140000000025,95.438,540.885,538.672,0.0
51151.0,STARLINK-3361,PAYLOAD,2022-06-19 11:42:19,15.08825572,0.0001886,53.2163,290.8087,44.1942,315.9201,5.4147e-05,5.73e-06,0.0,0 STARLINK-3361,1 51151U 22005AZ  22170.48772898  .00000573  00000-0  54147-4 0  9997,2 51151  53.2163 290.8087 0001886  44.1942 315.9201 15.08825572 23409,6917.924,95.438,541.094,538.485,0.0
51151.0,STARLINK-3361,PAYLOAD,2022-06-19 19:39:15,15.08829932,0.0001793,53.2162,289.3211,48.5229,311.5917,6.8912e-05,8.09e-06,0.0,0 STARLINK-3361,1 51151U 22005AZ  22170.81892760  .00000809  00000-0  68912-4 0  9992,2 51151  53.2162 289.3211 0001793  48.5229 311.5917 15.08829932 23458,6917.911,95.438,541.0169999999998,538.536,0.0
51151.0,STARLINK-3361,PAYLOAD,2022-06-20 00:25:24,15.08837598,0.0001706999999999,53.2167,288.4292,46.589,313.5244,7.5358e-05,9.11e-06,0.0,0 STARLINK-3361,1 51151U 22005AZ  22171.01764304  .00000911  00000-0  75358-4 0  9993,2 51151  53.2167 288.4292 0001707  46.5890 313.5244 15.08837598 24597,6917.888000000001,95.438,540.934,538.572,0.0
51151.0,STARLINK-3361,PAYLOAD,2022-06-20 11:33:07,15.08834168,0.0001856,53.2176,286.3488,52.9309,307.1852,-4.7515e-05,-1.044e-05,0.0,0 STARLINK-3361,1 51151U 22005AZ  22171.48133152 -.00001044  00000-0 -47515-4 0  9999,2 51151  53.2176 286.3488 0001856  52.9309 307.1852 15.08834168 24664,6917.898,95.438,541.047,538.479,0.0
51151.0,STARLINK-3361,PAYLOAD,2022-06-20 16:19:16,15.08836693,0.0001803,53.2174,285.4569,48.523,311.5917,-5.0436e-05,-1.091e-05,0.0,0 STARLINK-3361,1 51151U 22005AZ  22171.68005042 -.00001091  00000-0 -50436-4 0  9995,2 51151  53.2174 285.4569 0001803  48.5230 311.5917 15.08836693 23584,6917.89,95.438,541.003,538.508,0.0
51151.0,STARLINK-3361,PAYLOAD,2022-06-21 00:16:11,15.08842466,0.0001821,53.2172,283.9698,53.322,306.7939,5.5233e-06,-2e-06,0.0,0 STARLINK-3361,1 51151U 22005AZ  22172.01124515 -.00000200  00000-0  55233-5 0  9991,2 51151  53.2172 283.9698 0001821  53.3220 306.7939 15.08842466 24745,6917.873000000001,95.437,540.998,538.4780000000002,0.0
51151.0,STARLINK-3361,PAYLOAD,2022-06-21 12:59:17,15.08829923,0.0001862,53.2188,281.5918,59.2579,300.8596,1.7944e-05,-3e-08,0.0,0 STARLINK-3361,1 51151U 22005AZ  22172.54117654 -.00000003  00000-0  17944-4 0  9992,2 51151  53.2188 281.5918 0001862  59.2579 300.8596 15.08829923 24824,6917.911,95.438,541.064,538.488,0.0
51151.0,STARLINK-3361,PAYLOAD,2022-06-21 16:10:03,15.08829169,0.0001793,53.2191,280.998,56.8962,303.2202,2.6892e-05,1.4e-06,0.0,0 STARLINK-3361,1 51151U 22005AZ  22172.67365739  .00000140  00000-0  26892-4 0  9998,2 51151  53.2191 280.9980 0001793  56.8962 303.2202 15.08829169 23734,6917.913000000001,95.438,541.019,538.538,0.0
51151.0,STARLINK-3361,PAYLOAD,2022-06-22 12:50:03,15.08842092,0.0001935,53.2185,277.132,62.7088,297.4101,0.00013516,1.864e-05,0.0,0 STARLINK-3361,1 51151U 22005AZ  22173.53476695  .00001864  00000-0  13516-3 0  9990,2 51151  53.2185 277.1320 0001935  62.7088 297.4101 15.08842092 24975,6917.874,95.437,541.078,538.4,0.0
51151.0,STARLINK-3361,PAYLOAD,2022-06-22 16:00:50,15.08839785,0.0001861,53.2165,276.5348,50.1072,310.0084,9.704e-05,1.257e-05,0.0,0 STARLINK-3361,1 51151U 22005AZ  22173.66724959  .00001257  00000-0  97040-4 0  9994,2 51151  53.2165 276.5348 0001861  50.1072 310.0084 15.08839785 23884,6917.880999999999,95.438,541.033,538.4590000000002,0.0
51151.0,STARLINK-3361,PAYLOAD,2022-06-22 23:57:46,15.08838347,0.0001903,53.2165,275.048,50.0033,310.1126,7.041e-05,8.33e-06,0.0,0 STARLINK-3361,1 51151U 22005AZ  22173.99845150  .00000833  00000-0  70410-4 0  9998,2 51151  53.2165 275.0480 0001903  50.0033 310.1126 15.08838347 25049,6917.885,95.438,541.067,538.434,0.0
51151.0,STARLINK-3361,PAYLOAD,2022-06-23 11:05:27,15.08841798,0.0001873,53.2161,272.9663,50.4646,309.6511,0.00016456,2.332e-05,0.0,0 STARLINK-3361,1 51151U 22005AZ  22174.46212655  .00002332  00000-0  16456-3 0  9994,2 51151  53.2161 272.9663 0001873  50.4646 309.6511 15.08841798 24004,6917.875,95.437,541.036,538.444,0.0
51151.0,STARLINK-3361,PAYLOAD,2022-06-23 15:51:37,15.08842842,0.0001869,53.2161,272.0744,49.6714,310.4441,0.00010368,1.362e-05,0.0,0 STARLINK-3361,1 51151U 22005AZ  22174.66084777  .00001362  00000-0  10368-3 0  9996,2 51151  53.2161 272.0744 0001869  49.6714 310.4441 15.08842842 24032,6917.871999999999,95.437,541.03,538.444,0.0
51151.0,STARLINK-3361,PAYLOAD,2022-06-24 12:31:38,15.08834779,0.0001885,53.2158,268.2081,49.958,310.1577,-9.6007e-05,-1.816e-05,0.0,0 STARLINK-3361,1 51151U 22005AZ  22175.52197758 -.00001816  00000-0 -96007-4 0  9997,2 51151  53.2158 268.2081 0001885  49.9580 310.1577 15.08834779 25275,6917.896,95.438,541.065,538.457,0.0
51151.0,STARLINK-3361,PAYLOAD,2022-06-24 15:42:25,15.08833173,0.0001886,53.2158,267.6135,47.0639,313.0511,-0.00010547,-1.966e-05,0.0,0 STARLINK-3361,1 51151U 22005AZ  22175.65445916 -.00001966  00000-0 -10547-3 0  9993,2 51151  53.2158 267.6135 0001886  47.0639 313.0511 15.08833173 24189,6917.901,95.438,541.071,538.462,0.0
51151.0,STARLINK-3361,PAYLOAD,2022-06-25 12:22:25,15.08840456,0.0001859,53.2159,263.7477,48.7503,311.3649,-1.4256e-05,-5.15e-06,0.0,0 STARLINK-3361,1 51151U 22005AZ  22176.51557358 -.00000515  00000-0 -14256-4 0  9994,2 51151  53.2159 263.7477 0001859  48.7503 311.3649 15.08840456 25427,6917.879,95.438,541.03,538.4580000000002,0.0
51151.0,STARLINK-3361,PAYLOAD,2022-06-25 15:33:11,15.08842147,0.0001883,53.216,263.1532,48.6088,311.5066,1.7388999999999996e-06,-2.6e-06,0.0,0 STARLINK-3361,1 51151U 22005AZ  22176.64805194 -.00000260  00000-0  17389-5 0  9999,2 51151  53.2160 263.1532 0001883  48.6088 311.5066 15.08842147 24332,6917.874,95.437,541.0409999999998,538.436,0.0
51151.0,STARLINK-3361,PAYLOAD,2022-06-26 12:13:12,15.08833355,0.0001855,53.2159,259.2871,47.5178,312.5971,0.00010998,1.462e-05,0.0,0 STARLINK-3361,1 51151U 22005AZ  22177.50917457  .00001462  00000-0  10998-3 0  9992,2 51151  53.2159 259.2871 0001855  47.5178 312.5971 15.08833355 24460,6917.901,95.438,541.049,538.482,0.0
51151.0,STARLINK-3361,PAYLOAD,2022-06-26 16:59:22,15.08830543,0.0001869,53.2158,258.395,47.0261,313.0888,8.0254e-05,9.89e-06,0.0,0 STARLINK-3361,1 51151U 22005AZ  22177.70789826  .00000989  00000-0  80254-4 0  9997,2 51151  53.2158 258.3950 0001869  47.0261 313.0888 15.08830543 25606,6917.909000000002,95.438,541.067,538.481,0.0
51151.0,STARLINK-3361,PAYLOAD,2022-06-27 12:03:59,15.08841122,0.0001663,53.2158,254.8257,44.5188,315.5937,6.581900000000001e-06,-1.83e-06,0.0,0 STARLINK-3361,1 51151U 22005AZ  22178.50277427 -.00000183  00000-0  65819-5 0  9993,2 51151  53.2158 254.8257 0001663  44.5188 315.5937 15.08841122 25729,6917.877,95.437,540.8919999999998,538.592,0.0
51151.0,STARLINK-3361,PAYLOAD,2022-06-27 15:14:46,15.08834495,0.000169,53.2155,254.2311,44.1546,315.9581,-4.8518e-05,-1.06e-05,0.0,0 STARLINK-3361,1 51151U 22005AZ  22178.63526042 -.00001060  00000-0 -48518-4 0  9999,2 51151  53.2155 254.2311 0001690  44.1546 315.9581 15.08834495 25741,6917.897,95.438,540.931,538.5930000000002,0.0
51151.0,STARLINK-3361,PAYLOAD,2022-06-28 11:54:47,15.08832923,0.0001865,53.2153,250.366,43.793,316.321,1.2664e-05,-8.7e-07,0.0,0 STARLINK-3361,1 51151U 22005AZ  22179.49638214 -.00000087  00000-0  12664-4 0  9999,2 51151  53.2153 250.3660 0001865  43.7930 316.3210 15.08832923 24768,6917.901999999999,95.438,541.057,538.477,0.0
